{"type":"FeatureCollection","name":"Aurelia (fictional demo map, hand-made for Orion docs)","features":[{"type":"Feature","id":"WS","properties":{"name":"Westshore","code":"WS"},"geometry":{"type":"Polygon","coordinates":[[[5.2,53.9],[6.8,54.6],[8.448,54.443],[8.1,52.3],[4.438,52.3],[4.3,52.6],[5.2,53.9]]]}},{"type":"Feature","id":"NM","properties":{"name":"Northmarch","code":"NM"},"geometry":{"type":"Polygon","coordinates":[[[8.448,54.443],[8.9,54.4],[10.1,55.3],[11.9,55],[12.444,54.71],[12.9,52.3],[8.1,52.3],[8.448,54.443]]]}},{"type":"Feature","id":"HM","properties":{"name":"Highmoor","code":"HM"},"geometry":{"type":"Polygon","coordinates":[[[12.444,54.71],[13.4,54.2],[15.6,54.5],[16.129,54.308],[16.4,52.3],[12.9,52.3],[12.444,54.71]]]}},{"type":"Feature","id":"EV","properties":{"name":"Eastvale","code":"EV"},"geometry":{"type":"Polygon","coordinates":[[[16.129,54.308],[17.8,53.7],[19.3,52.4],[19.333,52.3],[16.4,52.3],[16.129,54.308]]]}},{"type":"Feature","id":"LK","properties":{"name":"Lakeside","code":"LK"},"geometry":{"type":"Polygon","coordinates":[[[8.1,52.3],[9.2,48.6],[5.487,48.6],[5.4,48.8],[4.6,49.9],[4.9,51.3],[4.438,52.3],[8.1,52.3]]]}},{"type":"Feature","id":"CT","properties":{"name":"Central","code":"CT"},"geometry":{"type":"Polygon","coordinates":[[[8.1,52.3],[12.9,52.3],[12.5,48.6],[9.2,48.6],[8.1,52.3]]]}},{"type":"Feature","id":"RV","properties":{"name":"Riverlands","code":"RV"},"geometry":{"type":"Polygon","coordinates":[[[12.9,52.3],[16.4,52.3],[15.7,48.6],[12.5,48.6],[12.9,52.3]]]}},{"type":"Feature","id":"SC","properties":{"name":"Stonecoast","code":"SC"},"geometry":{"type":"Polygon","coordinates":[[[16.4,52.3],[19.333,52.3],[19.9,50.6],[19.1,49.2],[19.287,48.6],[15.7,48.6],[16.4,52.3]]]}},{"type":"Feature","id":"SR","properties":{"name":"Southreach","code":"SR"},"geometry":{"type":"MultiPolygon","coordinates":[[[[9.2,48.6],[8.915,44.962],[8.6,45.1],[7.3,45.9],[6.1,47.2],[5.487,48.6],[9.2,48.6]]],[[[6,43.4],[7.4,43.9],[8.1,43.3],[7.6,42.5],[6.4,42.4],[5.8,42.8],[6,43.4]]]]}},{"type":"Feature","id":"RF","properties":{"name":"Redfield","code":"RF"},"geometry":{"type":"Polygon","coordinates":[[[9.2,48.6],[12.5,48.6],[13.03,44.096],[11.6,44.9],[10.2,44.4],[8.915,44.962],[9.2,48.6]]]}},{"type":"Feature","id":"GW","properties":{"name":"Greywater","code":"GW"},"geometry":{"type":"Polygon","coordinates":[[[12.5,48.6],[15.7,48.6],[16.036,45.169],[15.1,44.3],[13.2,44],[13.03,44.096],[12.5,48.6]]]}},{"type":"Feature","id":"SM","properties":{"name":"Sunmere","code":"SM"},"geometry":{"type":"Polygon","coordinates":[[[15.7,48.6],[19.287,48.6],[19.6,47.6],[18.4,46.3],[16.5,45.6],[16.036,45.169],[15.7,48.6]]]}},{"type":"Feature","id":"c-aur","properties":{"name":"Aurum (capital)","kind":"city"},"geometry":{"type":"Point","coordinates":[12.4,50.9]}},{"type":"Feature","id":"c-por","properties":{"name":"Port Selene","kind":"city"},"geometry":{"type":"Point","coordinates":[6.2,53.2]}},{"type":"Feature","id":"c-hav","properties":{"name":"Havenmoor","kind":"city"},"geometry":{"type":"Point","coordinates":[16.8,53.1]}},{"type":"Feature","id":"c-riv","properties":{"name":"Rivel","kind":"city"},"geometry":{"type":"Point","coordinates":[16.2,47.3]}},{"type":"Feature","id":"c-kes","properties":{"name":"Kesterby","kind":"city"},"geometry":{"type":"Point","coordinates":[8.3,48.2]}},{"type":"Feature","id":"c-sol","properties":{"name":"Solmar","kind":"city"},"geometry":{"type":"Point","coordinates":[12.1,45.2]}},{"type":"Feature","id":"c-isl","properties":{"name":"Isla Verde","kind":"city"},"geometry":{"type":"Point","coordinates":[6.9,43.1]}}]}